$$SOE
2459580.500000000, A.D. 2022-Jan-01 00:00:00.0000, -1.586518039929262E+09, -5.962009319645030E+09, -4.239784859847968E+08,
2459587.500000000, A.D. 2022-Jan-08 00:00:00.0000, -1.584063889179931E+09, -5.962721321068240E+09, -4.245263265792751E+08,
2459594.500000000, A.D. 2022-Jan-15 00:00:00.0000, -1.581609492849321E+09, -5.963432081369381E+09, -4.250740783781571E+08,
2459601.500000000, A.D. 2022-Jan-22 00:00:00.0000, -1.579154847542154E+09, -5.964141601958591E+09, -4.256217416494453E+08,
2459608.500000000, A.D. 2022-Jan-29 00:00:00.0000, -1.576699949284084E+09, -5.964849881769782E+09, -4.261693165540309E+08,
2459615.500000000, A.D. 2022-Feb-05 00:00:00.0000, -1.574244795728777E+09, -5.965556917932310E+09, -4.267168029979272E+08,
2459622.500000000, A.D. 2022-Feb-12 00:00:00.0000, -1.571789386191655E+09, -5.966262707510885E+09, -4.272642007695510E+08,
2459629.500000000, A.D. 2022-Feb-19 00:00:00.0000, -1.569333720835118E+09, -5.966967247944736E+09, -4.278115096470535E+08,
2459636.500000000, A.D. 2022-Feb-26 00:00:00.0000, -1.566877800316572E+09, -5.967670536909020E+09, -4.283587294146676E+08,
2459643.500000000, A.D. 2022-Mar-05 00:00:00.0000, -1.564421625740018E+09, -5.968372572215335E+09, -4.289058598533692E+08,
2459650.500000000, A.D. 2022-Mar-12 00:00:00.0000, -1.561965198689366E+09, -5.969073351816993E+09, -4.294529007318411E+08,
2459657.500000000, A.D. 2022-Mar-19 00:00:00.0000, -1.559508521272428E+09, -5.969772873890864E+09, -4.299998518022680E+08,
2459664.500000000, A.D. 2022-Mar-26 00:00:00.0000, -1.557051596153170E+09, -5.970471137001518E+09, -4.305467128038025E+08,
2459671.500000000, A.D. 2022-Apr-02 00:00:00.0000, -1.554594426504441E+09, -5.971168140403318E+09, -4.310934834847331E+08,
2459678.500000000, A.D. 2022-Apr-09 00:00:00.0000, -1.552137015609110E+09, -5.971863884475395E+09, -4.316401636681619E+08,
2459685.500000000, A.D. 2022-Apr-16 00:00:00.0000, -1.549679365752481E+09, -5.972558370635184E+09, -4.321867533406487E+08,
2459692.500000000, A.D. 2022-Apr-23 00:00:00.0000, -1.547221477674865E+09, -5.973251599646109E+09, -4.327332525589969E+08,
2459699.500000000, A.D. 2022-Apr-30 00:00:00.0000, -1.544763352454457E+09, -5.973943570564480E+09, -4.332796611871836E+08,
2459706.500000000, A.D. 2022-May-07 00:00:00.0000, -1.542304992757783E+09, -5.974634282299088E+09, -4.338259789057333E+08,
2459713.500000000, A.D. 2022-May-14 00:00:00.0000, -1.539846402068341E+09, -5.975323734745180E+09, -4.343722053727031E+08,
2459720.500000000, A.D. 2022-May-21 00:00:00.0000, -1.537387583924518E+09, -5.976011928734040E+09, -4.349183402880089E+08,
2459727.500000000, A.D. 2022-May-28 00:00:00.0000, -1.534928541645564E+09, -5.976698865756876E+09, -4.354643833954937E+08,
2459734.500000000, A.D. 2022-Jun-04 00:00:00.0000, -1.532469278268521E+09, -5.977384547775723E+09, -4.360103344737027E+08,
2459741.500000000, A.D. 2022-Jun-11 00:00:00.0000, -1.530009796551384E+09, -5.978068977119043E+09, -4.365561933284180E+08,
2459748.500000000, A.D. 2022-Jun-18 00:00:00.0000, -1.527550099003786E+09, -5.978752156448545E+09, -4.371019597893434E+08,
2459755.500000000, A.D. 2022-Jun-25 00:00:00.0000, -1.525090187915713E+09, -5.979434088830136E+09, -4.376476337162898E+08,
2459762.500000000, A.D. 2022-Jul-02 00:00:00.0000, -1.522630065250185E+09, -5.980114777974532E+09, -4.381932150324111E+08,
2459769.500000000, A.D. 2022-Jul-09 00:00:00.0000, -1.520169732009586E+09, -5.980794228470298E+09, -4.387387038056974E+08,
2459776.500000000, A.D. 2022-Jul-16 00:00:00.0000, -1.517709187130805E+09, -5.981472444926353E+09, -4.392841002850380E+08,
2459783.500000000, A.D. 2022-Jul-23 00:00:00.0000, -1.515248428107562E+09, -5.982149429946137E+09, -4.398294046826532E+08,
2459790.500000000, A.D. 2022-Jul-30 00:00:00.0000, -1.512787453255825E+09, -5.982825184287311E+09, -4.403746169844892E+08,
2459797.500000000, A.D. 2022-Aug-06 00:00:00.0000, -1.510326262023581E+09, -5.983499708558840E+09, -4.409197370654771E+08,
2459804.500000000, A.D. 2022-Aug-13 00:00:00.0000, -1.507864854168110E+09, -5.984173003701033E+09, -4.414647648088124E+08,
2459811.500000000, A.D. 2022-Aug-20 00:00:00.0000, -1.505403229370147E+09, -5.984845070751892E+09, -4.420097001261928E+08,
2459818.500000000, A.D. 2022-Aug-27 00:00:00.0000, -1.502941387216763E+09, -5.985515910626390E+09, -4.425545429444082E+08,
2459825.500000000, A.D. 2022-Sep-03 00:00:00.0000, -1.500479327305058E+09, -5.986185524019171E+09, -4.430992931898966E+08,
2459832.500000000, A.D. 2022-Sep-10 00:00:00.0000, -1.498017049376559E+09, -5.986853911406798E+09, -4.436439507774143E+08,
2459839.500000000, A.D. 2022-Sep-17 00:00:00.0000, -1.495554553452915E+09, -5.987521073151253E+09, -4.441885156056349E+08,
2459846.500000000, A.D. 2022-Sep-24 00:00:00.0000, -1.493091839912444E+09, -5.988187009755593E+09, -4.447329875693905E+08,
2459853.500000000, A.D. 2022-Oct-01 00:00:00.0000, -1.490628909267565E+09, -5.988851722294037E+09, -4.452773666125193E+08,
2459860.500000000, A.D. 2022-Oct-08 00:00:00.0000, -1.488165761235803E+09, -5.989515212494429E+09, -4.458216528161645E+08,
2459867.500000000, A.D. 2022-Oct-15 00:00:00.0000, -1.485702394036213E+09, -5.990177481273874E+09, -4.463658463393383E+08,
2459874.500000000, A.D. 2022-Oct-22 00:00:00.0000, -1.483238806092792E+09, -5.990838527411465E+09, -4.469099471494651E+08,
2459881.500000000, A.D. 2022-Oct-29 00:00:00.0000, -1.480774997647085E+09, -5.991498348951538E+09, -4.474539549842956E+08,
2459888.500000000, A.D. 2022-Nov-05 00:00:00.0000, -1.478310970180653E+09, -5.992156944596389E+09, -4.479978695139797E+08,
2459895.500000000, A.D. 2022-Nov-12 00:00:00.0000, -1.475846725612240E+09, -5.992814313821140E+09, -4.485416904197774E+08,
2459902.500000000, A.D. 2022-Nov-19 00:00:00.0000, -1.473382265989006E+09, -5.993470456664931E+09, -4.490854174015737E+08,
2459909.500000000, A.D. 2022-Nov-26 00:00:00.0000, -1.470917593409608E+09, -5.994125373595747E+09, -4.496290501708789E+08,
2459916.500000000, A.D. 2022-Dec-03 00:00:00.0000, -1.468452710013102E+09, -5.994779065460399E+09, -4.501725884455845E+08,
2459923.500000000, A.D. 2022-Dec-10 00:00:00.0000, -1.465987617988138E+09, -5.995431533500983E+09, -4.507160319491632E+08,
2459930.500000000, A.D. 2022-Dec-17 00:00:00.0000, -1.463522319577725E+09, -5.996082779462808E+09, -4.512593804186370E+08,
2459937.500000000, A.D. 2022-Dec-24 00:00:00.0000, -1.461056816970188E+09, -5.996732805859606E+09, -4.518026336367211E+08,
2459944.500000000, A.D. 2022-Dec-31 00:00:00.0000, -1.458591111718664E+09, -5.997381616288554E+09, -4.523457915120907E+08,
2459951.500000000, A.D. 2023-Jan-07 00:00:00.0000, -1.456125203566444E+09, -5.998029214832674E+09, -4.528888541403644E+08,
2459958.500000000, A.D. 2023-Jan-14 00:00:00.0000, -1.453659090645165E+09, -5.998675604053823E+09, -4.534318216246657E+08,
2459965.500000000, A.D. 2023-Jan-21 00:00:00.0000, -1.451192771690597E+09, -5.999320784748914E+09, -4.539746938558671E+08,
2459972.500000000, A.D. 2023-Jan-28 00:00:00.0000, -1.448726246608040E+09, -5.999964757664834E+09, -4.545174706048396E+08,
2459979.500000000, A.D. 2023-Feb-04 00:00:00.0000, -1.446259515595868E+09, -6.000607524144360E+09, -4.550601516600573E+08,
2459986.500000000, A.D. 2023-Feb-11 00:00:00.0000, -1.443792578622427E+09, -6.001249085896549E+09, -4.556027368616493E+08,
2459993.500000000, A.D. 2023-Feb-18 00:00:00.0000, -1.441325435319494E+09, -6.001889444714705E+09, -4.561452260932083E+08,
2460000.500000000, A.D. 2023-Feb-25 00:00:00.0000, -1.438858085029367E+09, -6.002528602303476E+09, -4.566876192685792E+08,
2460007.500000000, A.D. 2023-Mar-04 00:00:00.0000, -1.436390526903251E+09, -6.003166560196095E+09, -4.572299163212874E+08,
2460014.500000000, A.D. 2023-Mar-11 00:00:00.0000, -1.433922760022117E+09, -6.003803319761002E+09, -4.577721171990111E+08,
2460021.500000000, A.D. 2023-Mar-18 00:00:00.0000, -1.431454783492783E+09, -6.004438882347075E+09, -4.583142218712487E+08,
2460028.500000000, A.D. 2023-Mar-25 00:00:00.0000, -1.428986596315701E+09, -6.005073249614446E+09, -4.588562303724661E+08,
2460035.500000000, A.D. 2023-Apr-01 00:00:00.0000, -1.426518196599756E+09, -6.005706423657261E+09, -4.593981428873115E+08,
2460042.500000000, A.D. 2023-Apr-08 00:00:00.0000, -1.424049580739296E+09, -6.006338405693227E+09, -4.599399597211101E+08,
2460049.500000000, A.D. 2023-Apr-15 00:00:00.0000, -1.421580744890291E+09, -6.006969194425920E+09, -4.604816810315351E+08,
2460056.500000000, A.D. 2023-Apr-22 00:00:00.0000, -1.419111686936343E+09, -6.007598787131723E+09, -4.610233067366683E+08,
2460063.500000000, A.D. 2023-Apr-29 00:00:00.0000, -1.416642406209447E+09, -6.008227181218398E+09, -4.615648366662023E+08,
2460070.500000000, A.D. 2023-May-06 00:00:00.0000, -1.414172902725667E+09, -6.008854374474098E+09, -4.621062706487567E+08,
2460077.500000000, A.D. 2023-May-13 00:00:00.0000, -1.411703176912485E+09, -6.009480364900200E+09, -4.626476085188856E+08,
2460084.500000000, A.D. 2023-May-20 00:00:00.0000, -1.409233229593645E+09, -6.010105150619023E+09, -4.631888501055214E+08,
2460091.500000000, A.D. 2023-May-27 00:00:00.0000, -1.406763062037982E+09, -6.010728729885718E+09, -4.637299952222772E+08,
2460098.500000000, A.D. 2023-Jun-03 00:00:00.0000, -1.404292676014647E+09, -6.011351101178341E+09, -4.642710436629999E+08,
2460105.500000000, A.D. 2023-Jun-10 00:00:00.0000, -1.401822073830929E+09, -6.011972263379733E+09, -4.648119952061875E+08,
2460112.500000000, A.D. 2023-Jun-17 00:00:00.0000, -1.399351258263650E+09, -6.012592216111322E+09, -4.653528496416161E+08,
2460119.500000000, A.D. 2023-Jun-24 00:00:00.0000, -1.396880232064128E+09, -6.013210960163130E+09, -4.658936068442345E+08,
2460126.500000000, A.D. 2023-Jul-01 00:00:00.0000, -1.394408996783578E+09, -6.013828497191843E+09, -4.664342668510859E+08,
2460133.500000000, A.D. 2023-Jul-08 00:00:00.0000, -1.391937552592929E+09, -6.014444827864841E+09, -4.669748297207110E+08,
2460140.500000000, A.D. 2023-Jul-15 00:00:00.0000, -1.389465900373821E+09, -6.015059951279917E+09, -4.675152952892964E+08,
$$EOE